H1 CPF  1  HTS 2022 11 17 12  8211 larets           NONE
H2  0304206 5557    27944 2022 11 17  0  0  0 2022 11 22  0  0  0   180 1 1  0 0 0
H5  0.0560 
H9 
10 0 59904  20520.00000  0    4409604.226   -5489478.383    -667272.281
10 0 59904  20700.00000  0    4181974.111   -5661765.354     667714.059
10 0 59904  20880.00000  0    3800807.061   -5620522.591    1978274.029
10 0 59904  21060.00000  0    3285476.626   -5363318.002    3216432.453
10 0 59904  21240.00000  0    2660235.499   -4896192.522    4336822.567
10 0 59904  21420.00000  0    1953102.031   -4233551.092    5298374.494
10 0 59904  21600.00000  0    1194614.286   -3397707.285    6065832.246
10 0 59904  21780.00000  0     416510.157   -2418103.912    6611041.400
10 0 59904  21960.00000  0    -349604.034   -1330249.346    6913960.791
10 0 59904  22140.00000  0   -1073536.437    -174416.890    6963381.126
10 0 59904  22320.00000  0   -1727700.895    1005853.279    6757337.419
10 0 59904  22500.00000  0   -2288176.469    2165398.786    6303199.484
10 0 59904  22680.00000  0   -2735598.341    3259171.484    5617438.132
10 0 59904  22860.00000  0   -3055849.482    4244010.002    4725068.990
10 0 59904  23040.00000  0   -3240529.579    5080385.419    3658778.196
10 0 59904  23220.00000  0   -3287176.324    5734047.345    2457742.126
10 0 59904  23400.00000  0   -3199223.960    6177487.304    1166174.302
10 0 59904  23580.00000  0   -2985699.442    6391143.051    -168342.552
10 0 59904  23760.00000  0   -2660669.681    6364282.474   -1496673.062
10 0 59904  23940.00000  0   -2242467.511    6095508.549   -2770018.188
10 0 59904  24120.00000  0   -1752733.397    5592849.239   -3941771.203
10 0 59904  24300.00000  0   -1215339.953    4873451.868   -4969245.772
10 0 59904  24480.00000  0    -655261.085    3962910.564   -5815215.067
10 0 59904  24660.00000  0     -97439.778    2894274.006   -6449211.783
10 0 59904  24840.00000  0     434295.186    1706780.363   -6848552.287
10 0 59904  25020.00000  0     918214.696     444386.348   -6999064.217
10 0 59904  25200.00000  0    1335545.542    -845854.042   -6895521.517
10 0 59904  25380.00000  0    1671171.956   -2115511.797   -6541783.938
10 0 59904  25560.00000  0    1914164.283   -3316551.592   -5950650.255
10 0 59904  25740.00000  0    2058125.817   -4403109.016   -5143435.795
10 0 59904  25920.00000  0    2101345.747   -5333228.323   -4149262.879
10 0 59904  26100.00000  0    2046752.393   -6070490.349   -3004077.098
10 0 59904  26280.00000  0    1901666.069   -6585478.273   -1749408.882
10 0 59904  26460.00000  0    1677357.023   -6857008.442    -430902.602
10 0 59904  26640.00000  0    1388428.071   -6873058.891     903339.230
10 0 59904  26820.00000  0    1052047.452   -6631337.884    2204531.208
10 0 59904  27000.00000  0     687069.097   -6139458.484    3425027.019
10 0 59904  27180.00000  0     313084.182   -5414698.423    4520101.637
10 0 59904  27360.00000  0     -50546.612   -4483367.114    5449612.435
10 0 59904  27540.00000  0    -385628.553   -3379811.103    6179478.137
10 0 59904  27720.00000  0    -675989.943   -2145103.457    6682919.635
10 0 59904  27900.00000  0    -908224.427    -825484.122    6941418.977
10 0 59904  28080.00000  0   -1072288.687     529384.045    6945386.671
10 0 59904  28260.00000  0   -1161933.255    1868293.114    6694518.575
10 0 59904  28440.00000  0   -1174947.056    3140434.604    6197829.152
10 0 59904  28620.00000  0   -1113208.851    4297346.533    5473359.814
10 0 59904  28800.00000  0    -982542.836    5294797.662    4547563.383
10 0 59904  28980.00000  0    -792382.795    6094539.833    3454371.386
10 0 59904  29160.00000  0    -555258.008    6665848.772    2233964.713
10 0 59904  29340.00000  0    -286123.508    6986786.994     931280.229
10 0 59904  29520.00000  0      -1559.307    7045103.767    -405695.073
10 0 59904  29700.00000  0     281113.817    6838727.199   -1727759.212
10 0 59904  29880.00000  0     544751.168    6375814.649   -2986379.633
10 0 59904  30060.00000  0     773280.027    5674366.397   -4135525.871
10 0 59904  30240.00000  0     952533.636    4761439.174   -5133373.154
10 0 59904  30420.00000  0    1070981.297    3672006.185   -5943806.706
10 0 59904  30600.00000  0    1120319.054    2447533.877   -6537674.400
10 0 59904  30780.00000  0    1095896.884    1134349.269   -6893756.433
10 0 59904  30960.00000  0     996970.555    -218125.429   -6999440.579
10 0 59904  31140.00000  0     826772.174   -1559212.355   -6851104.354
10 0 59904  31320.00000  0     592398.708   -2838831.862   -6454202.065
10 0 59904  31500.00000  0     304525.869   -4009320.643   -5823073.550
10 0 59904  31680.00000  0     -23047.637   -5027177.241   -4980469.292
10 0 59904  31860.00000  0    -374008.662   -5854674.181   -3956793.188
10 0 59904  32040.00000  0    -730273.803   -6461285.665   -2789074.227
10 0 59904  32220.00000  0   -1072840.661   -6824868.933   -1519682.881
10 0 59904  32400.00000  0   -1382709.815   -6932542.832    -194823.911
10 0 59904  32580.00000  0   -1641833.248   -6781207.701    1137146.481
10 0 59904  32760.00000  0   -1834042.754   -6377672.066    2427509.282
10 0 59904  32940.00000  0   -1945908.727   -5738372.102    3629002.811
10 0 59904  33120.00000  0   -1967480.616   -4888691.871    4697590.274
10 0 59904  33300.00000  0   -1892870.719   -3861924.617    5594094.252
10 0 59904  33480.00000  0   -1720656.390   -2697929.403    6285638.735
10 0 59904  33660.00000  0   -1454076.741   -1441544.246    6746842.278
10 0 59904  33840.00000  0   -1101018.184    -140835.623    6960729.584
10 0 59904  34020.00000  0    -673794.327    1154753.954    6919341.713
10 0 59904  34200.00000  0    -188721.059    2396291.999    6624034.430
10 0 59904  34380.00000  0     334504.435    3537217.152    6085454.484
10 0 59904  34560.00000  0     873596.810    4535110.426    5323189.604
10 0 59904  34740.00000  0    1404621.532    5353317.618    4365095.567
10 0 59904  34920.00000  0    1903045.587    5962358.281    3246308.712
10 0 59904  35100.00000  0    2344858.039    6341062.203    2007970.573
10 0 59904  35280.00000  0    2707705.637    6477373.304     695686.744
10 0 59904  35460.00000  0    2971978.903    6368761.340    -642209.753
10 0 59904  35640.00000  0    3121791.907    6022224.288   -1956505.643
10 0 59904  35820.00000  0    3145806.127    5453885.469   -3198983.046
10 0 59904  36000.00000  0    3037853.308    4688207.951   -4324238.476
10 0 59904  36180.00000  0    2797324.062    3756873.263   -5291357.574
10 0 59904  36360.00000  0    2429310.460    2697400.279   -6065376.332
10 0 59904  36540.00000  0    1944506.793    1551578.796   -6618485.259
10 0 59904  36720.00000  0    1358878.871     363794.210   -6930946.102
10 0 59904  36900.00000  0     693123.189    -820683.998   -6991715.457
10 0 59904  37080.00000  0     -28068.399   -1957396.150   -6798774.826
10 0 59904  37260.00000  0    -776908.980   -3004314.025   -6359169.029
10 0 59904  37440.00000  0   -1523559.649   -3923355.061   -5688764.973
10 0 59904  37620.00000  0   -2237285.422   -4681747.526   -4811725.317
10 0 59904  37800.00000  0   -2887691.748   -5253208.055   -3759706.235
10 0 59904  37980.00000  0   -3445999.673   -5618886.105   -2570780.919
10 0 59904  38160.00000  0   -3886305.156   -5768031.660   -1288114.010
10 0 59904  38340.00000  0   -4186767.012   -5698352.317      41579.927
10 0 59904  38520.00000  0   -4330658.902   -5416030.805    1369743.705
10 0 59904  38700.00000  0   -4307227.542   -4935392.717    2647780.293
10 0 59904  38880.00000  0   -4112308.055   -4278234.203    3828869.874
10 0 59904  39060.00000  0   -3748664.188   -3472846.556    4869718.366
10 0 59904  39240.00000  0   -3226034.909   -2552785.993    5732163.779
10 0 59904  39420.00000  0   -2560887.950   -1555455.722    6384573.417
10 0 59904  39600.00000  0   -1775893.982    -520569.098    6802993.807
10 0 59904  39780.00000  0    -899138.443     511448.304    6972013.281
10 0 59904  39960.00000  0      36891.068    1501042.803    6885312.150
10 0 59904  40140.00000  0     996508.634    2411054.752    6545904.810
10 0 59904  40320.00000  0    1942193.137    3208128.495    5966056.656
10 0 59904  40500.00000  0    2836062.041    3863959.456    5166877.713
10 0 59904  40680.00000  0    3641409.048    4356339.973    4177594.658
10 0 59904  40860.00000  0    4324241.649    4669954.895    3034508.660
10 0 59904  41040.00000  0    4854757.044    4796896.588    1779668.789
10 0 59904  41220.00000  0    5208674.777    4736861.647     459292.775
10 0 59904  41400.00000  0    5368357.816    4497017.842    -877991.825
10 0 59904  41580.00000  0    5323652.819    4091541.006   -2183012.273
10 0 59904  41760.00000  0    5072408.417    3540852.184   -3407922.452
10 0 59904  41940.00000  0    4620650.080    2870602.814   -4507998.580
10 0 59904  42120.00000  0    3982407.370    2110468.005   -5443280.813
10 0 59904  42300.00000  0    3179214.441    1292811.848   -6179992.302
10 0 59904  42480.00000  0    2239318.750     451299.767   -6691693.311
10 0 59904  42660.00000  0    1196642.379    -380479.177   -6960145.909
10 0 59904  42840.00000  0      89545.245   -1170328.427   -6975887.062
10 0 59904  43020.00000  0   -1040573.605   -1888656.949   -6738506.376
10 0 59904  43200.00000  0   -2150788.858   -2509552.816   -6256636.104
10 0 59904  43380.00000  0   -3198238.164   -3011694.680   -5547656.627
10 0 59904  43560.00000  0   -4141743.132   -3379075.821   -4637123.544
10 0 59904  43740.00000  0   -4943419.235   -3601521.660   -3557915.673
10 0 59904  43920.00000  0   -5570209.925   -3674975.136   -2349112.729
10 0 59904  44100.00000  0   -5995281.065   -3601535.767   -1054627.337
10 0 59904  44280.00000  0   -6199205.450   -3389243.629     278370.550
10 0 59904  44460.00000  0   -6170874.677   -3051613.382    1601180.785
10 0 59904  44640.00000  0   -5908081.576   -2606935.480    2865385.918
10 0 59904  44820.00000  0   -5417732.948   -2077376.360    4024662.675
99
